start=new Date('2022-06-12T00:00:00.000Z').valueOf();
sats=[{"RCS_SIZE":"LARGE","RA_OF_ASC_NODE":"54.7803","GP_ID":"205930398","OBJECT_TYPE":"PAYLOAD","CENTER_NAME":"EARTH","COUNTRY_CODE":"US","MEAN_MOTION_DOT":"-0.00064533","INCLINATION":"53.2223","TLE_LINE1":"1 51976U 22025W   22162.91667824 -.00064533  00000-0 -40687-2 0  9995","ARG_OF_PERICENTER":"52.8352","OBJECT_ID":"2022-025W","PERIOD":"95.435","EPOCH":"2022-06-11T22:00:00.999936","TLE_LINE2":"2 51976  53.2223  54.7803 0001947  52.8352 105.3083 15.08879894  1303","ECCENTRICITY":"0.00019470","NORAD_CAT_ID":"51976","MEAN_ANOMALY":"105.3083","DECAY_DATE":null,"APOAPSIS":"540.970","MEAN_MOTION_DDOT":"0.0000000000000","MEAN_ELEMENT_THEORY":"SGP4","EPHEMERIS_TYPE":"0","MEAN_MOTION":"15.08879894","CLASSIFICATION_TYPE":"U","SITE":"AFETR","LAUNCH_DATE":"2022-03-09","OBJECT_NAME":"STARLINK-3663","FILE":"3492149","PERIAPSIS":"538.277","REF_FRAME":"TEME","ELEMENT_SET_NO":"999","TIME_SYSTEM":"UTC","SEMIMAJOR_AXIS":"6917.758","REV_AT_EPOCH":"130","BSTAR":"-0.00406870000000"},{"RCS_SIZE":"LARGE","GP_ID":"205930190","RA_OF_ASC_NODE":"36.0603","CENTER_NAME":"EARTH","OBJECT_TYPE":"PAYLOAD","MEAN_MOTION_DOT":"-0.00716259","INCLINATION":"53.2173","COUNTRY_CODE":"US","TLE_LINE1":"1 51977U 22025X   22162.91667824 -.00716259  00000-0 -25346-1 0  9999","PERIOD":"94.040","EPOCH":"2022-06-11T22:00:00.999936","OBJECT_ID":"2022-025X","ARG_OF_PERICENTER":"82.0456","NORAD_CAT_ID":"51977","MEAN_ANOMALY":"213.2434","TLE_LINE2":"2 51977  53.2173  36.0603 0001300  82.0456 213.2434 15.31270380  1302","ECCENTRICITY":"0.00013000","MEAN_MOTION":"15.31270380","MEAN_ELEMENT_THEORY":"SGP4","EPHEMERIS_TYPE":"0","MEAN_MOTION_DDOT":"0.0000000000000","DECAY_DATE":null,"APOAPSIS":"472.913","FILE":"3492149","PERIAPSIS":"471.132","SITE":"AFETR","LAUNCH_DATE":"2022-03-09","OBJECT_NAME":"STARLINK-3660","CLASSIFICATION_TYPE":"U","REF_FRAME":"TEME","ELEMENT_SET_NO":"999","TIME_SYSTEM":"UTC","SEMIMAJOR_AXIS":"6850.158","REV_AT_EPOCH":"130","BSTAR":"-0.02534600000000"},{"CENTER_NAME":"EARTH","OBJECT_TYPE":"PAYLOAD","INCLINATION":"53.2139","MEAN_MOTION_DOT":"-0.00019583","COUNTRY_CODE":"US","RCS_SIZE":"LARGE","RA_OF_ASC_NODE":"54.8042","GP_ID":"205930160","ARG_OF_PERICENTER":"63.1009","OBJECT_ID":"2022-025Y","PERIOD":"95.437","EPOCH":"2022-06-11T22:00:00.999936","TLE_LINE2":"2 51978  53.2139  54.8042 0001280  63.1009 155.1282 15.08848744  1305","ECCENTRICITY":"0.00012800","MEAN_ANOMALY":"155.1282","NORAD_CAT_ID":"51978","TLE_LINE1":"1 51978U 22025Y   22162.91667824 -.00019583  00000-0 -12154-2 0  9990","REF_FRAME":"TEME","ELEMENT_SET_NO":"999","TIME_SYSTEM":"UTC","MEAN_ELEMENT_THEORY":"SGP4","EPHEMERIS_TYPE":"0","MEAN_MOTION":"15.08848744","DECAY_DATE":null,"APOAPSIS":"540.604","MEAN_MOTION_DDOT":"0.0000000000000","SITE":"AFETR","LAUNCH_DATE":"2022-03-09","OBJECT_NAME":"STARLINK-3666","CLASSIFICATION_TYPE":"U","FILE":"3492149","PERIAPSIS":"538.833","BSTAR":"-0.00121540000000","SEMIMAJOR_AXIS":"6917.854","REV_AT_EPOCH":"130"},{"ELEMENT_SET_NO":"999","TIME_SYSTEM":"UTC","REF_FRAME":"TEME","FILE":"3492149","PERIAPSIS":"538.210","OBJECT_NAME":"STARLINK-3656","SITE":"AFETR","LAUNCH_DATE":"2022-03-09","CLASSIFICATION_TYPE":"U","MEAN_MOTION":"15.08875688","MEAN_ELEMENT_THEORY":"SGP4","EPHEMERIS_TYPE":"0","MEAN_MOTION_DDOT":"0.0000000000000","APOAPSIS":"541.063","DECAY_DATE":null,"BSTAR":"-0.00408960000000","REV_AT_EPOCH":"130","SEMIMAJOR_AXIS":"6917.771","INCLINATION":"53.2205","MEAN_MOTION_DOT":"-0.00064853","COUNTRY_CODE":"US","CENTER_NAME":"EARTH","OBJECT_TYPE":"PAYLOAD","GP_ID":"205930295","RA_OF_ASC_NODE":"54.7927","RCS_SIZE":"LARGE","NORAD_CAT_ID":"51979","MEAN_ANOMALY":"89.8847","ECCENTRICITY":"0.00020620","TLE_LINE2":"2 51979  53.2205  54.7927 0002062  48.2489  89.8847 15.08875688  1303","PERIOD":"95.435","EPOCH":"2022-06-11T22:00:00.999936","ARG_OF_PERICENTER":"48.2489","OBJECT_ID":"2022-025Z","TLE_LINE1":"1 51979U 22025Z   22162.91667824 -.00064853  00000-0 -40896-2 0  9995"},{"BSTAR":"-0.00380170000000","REV_AT_EPOCH":"130","SEMIMAJOR_AXIS":"6917.784","TIME_SYSTEM":"UTC","ELEMENT_SET_NO":"999","REF_FRAME":"TEME","PERIAPSIS":"538.587","FILE":"3492149","SITE":"AFETR","LAUNCH_DATE":"2022-03-09","CLASSIFICATION_TYPE":"U","OBJECT_NAME":"STARLINK-3649","MEAN_MOTION_DDOT":"0.0000000000000","DECAY_DATE":null,"APOAPSIS":"540.711","MEAN_MOTION":"15.08871615","EPHEMERIS_TYPE":"0","MEAN_ELEMENT_THEORY":"SGP4","NORAD_CAT_ID":"51980","MEAN_ANOMALY":"189.0261","TLE_LINE2":"2 51980  53.2154  54.8018 0001535  69.1526 189.0261 15.08871615  1307","ECCENTRICITY":"0.00015350","PERIOD":"95.436","EPOCH":"2022-06-11T22:00:00.999936","OBJECT_ID":"2022-025AA","ARG_OF_PERICENTER":"69.1526","TLE_LINE1":"1 51980U 22025AA  22162.91667824 -.00060338  00000-0 -38017-2 0  9993","COUNTRY_CODE":"US","MEAN_MOTION_DOT":"-0.00060338","INCLINATION":"53.2154","OBJECT_TYPE":"PAYLOAD","CENTER_NAME":"EARTH","GP_ID":"205930055","RA_OF_ASC_NODE":"54.8018","RCS_SIZE":"LARGE"},{"RA_OF_ASC_NODE":"54.8443","GP_ID":"205895168","RCS_SIZE":"LARGE","COUNTRY_CODE":"US","INCLINATION":"53.2129","MEAN_MOTION_DOT":"-0.00034768","OBJECT_TYPE":"PAYLOAD","CENTER_NAME":"EARTH","TLE_LINE1":"1 51981U 22025AB  22162.91667824 -.00034768  00000-0 -21756-2 0  9994","ECCENTRICITY":"0.00017690","TLE_LINE2":"2 51981  53.2129  54.8443 0001769  59.7074 118.4682 15.08862703 15827","MEAN_ANOMALY":"118.4682","NORAD_CAT_ID":"51981","OBJECT_ID":"2022-025AB","ARG_OF_PERICENTER":"59.7074","PERIOD":"95.436","EPOCH":"2022-06-11T22:00:00.999936","LAUNCH_DATE":"2022-03-09","SITE":"AFETR","CLASSIFICATION_TYPE":"U","OBJECT_NAME":"STARLINK-3635","PERIAPSIS":"538.452","FILE":"3491730","DECAY_DATE":null,"APOAPSIS":"540.900","MEAN_MOTION_DDOT":"0.0000000000000","EPHEMERIS_TYPE":"0","MEAN_ELEMENT_THEORY":"SGP4","MEAN_MOTION":"15.08862703","TIME_SYSTEM":"UTC","ELEMENT_SET_NO":"999","REF_FRAME":"TEME","REV_AT_EPOCH":"1582","SEMIMAJOR_AXIS":"6917.811","BSTAR":"-0.00217560000000"},{"INCLINATION":"53.2170","MEAN_MOTION_DOT":"0.00068284","COUNTRY_CODE":"US","OBJECT_TYPE":"PAYLOAD","CENTER_NAME":"EARTH","GP_ID":"205895178","RA_OF_ASC_NODE":"54.7975","RCS_SIZE":"LARGE","NORAD_CAT_ID":"51982","MEAN_ANOMALY":"221.4734","TLE_LINE2":"2 51982  53.2170  54.7975 0001835  56.7095 221.4734 15.08774338 15826","ECCENTRICITY":"0.00018350","PERIOD":"95.442","EPOCH":"2022-06-11T22:00:00.999936","ARG_OF_PERICENTER":"56.7095","OBJECT_ID":"2022-025AC","TLE_LINE1":"1 51982U 22025AC  22162.91667824  .00068284  00000-0  42749-2 0  9998","TIME_SYSTEM":"UTC","ELEMENT_SET_NO":"999","REF_FRAME":"TEME","FILE":"3491731","PERIAPSIS":"538.677","LAUNCH_DATE":"2022-03-09","SITE":"AFETR","OBJECT_NAME":"STARLINK-3650","CLASSIFICATION_TYPE":"U","MEAN_MOTION":"15.08774338","MEAN_ELEMENT_THEORY":"SGP4","EPHEMERIS_TYPE":"0","MEAN_MOTION_DDOT":"0.0000000000000","DECAY_DATE":null,"APOAPSIS":"541.216","BSTAR":"0.00427490000000","REV_AT_EPOCH":"1582","SEMIMAJOR_AXIS":"6918.081"},{"OBJECT_TYPE":"PAYLOAD","CENTER_NAME":"EARTH","COUNTRY_CODE":"US","MEAN_MOTION_DOT":"-0.00053489","INCLINATION":"53.2125","RCS_SIZE":"LARGE","RA_OF_ASC_NODE":"54.8351","GP_ID":"205929951","ARG_OF_PERICENTER":"59.0835","OBJECT_ID":"2022-025AD","PERIOD":"95.437","EPOCH":"2022-06-11T22:00:00.999936","TLE_LINE2":"2 51983  53.2125  54.8351 0001579  59.0835 139.1257 15.08852908  1302","ECCENTRICITY":"0.00015790","MEAN_ANOMALY":"139.1257","NORAD_CAT_ID":"51983","TLE_LINE1":"1 51983U 22025AD  22162.91667824 -.00053489  00000-0 -33666-2 0  9990","REF_FRAME":"TEME","TIME_SYSTEM":"UTC","ELEMENT_SET_NO":"999","APOAPSIS":"540.798","DECAY_DATE":null,"MEAN_MOTION_DDOT":"0.0000000000000","EPHEMERIS_TYPE":"0","MEAN_ELEMENT_THEORY":"SGP4","MEAN_MOTION":"15.08852908","SITE":"AFETR","CLASSIFICATION_TYPE":"U","LAUNCH_DATE":"2022-03-09","OBJECT_NAME":"STARLINK-3655","FILE":"3492149","PERIAPSIS":"538.614","BSTAR":"-0.00336660000000","SEMIMAJOR_AXIS":"6917.841","REV_AT_EPOCH":"130"},{"SEMIMAJOR_AXIS":"6917.858","REV_AT_EPOCH":"130","BSTAR":"-0.00116250000000","MEAN_MOTION_DDOT":"0.0000000000000","DECAY_DATE":null,"APOAPSIS":"541.144","MEAN_MOTION":"15.08847227","EPHEMERIS_TYPE":"0","MEAN_ELEMENT_THEORY":"SGP4","PERIAPSIS":"538.303","FILE":"3492149","CLASSIFICATION_TYPE":"U","SITE":"AFETR","LAUNCH_DATE":"2022-03-09","OBJECT_NAME":"STARLINK-3664","REF_FRAME":"TEME","TIME_SYSTEM":"UTC","ELEMENT_SET_NO":"999","TLE_LINE1":"1 51984U 22025AE  22162.91667824 -.00018746  00000-0 -11625-2 0  9999","PERIOD":"95.437","EPOCH":"2022-06-11T22:00:00.999936","ARG_OF_PERICENTER":"51.6296","OBJECT_ID":"2022-025AE","NORAD_CAT_ID":"51984","MEAN_ANOMALY":"346.4920","ECCENTRICITY":"0.00020530","TLE_LINE2":"2 51984  53.2186  54.7884 0002053  51.6296 346.4920 15.08847227  1305","RCS_SIZE":"LARGE","GP_ID":"205930399","RA_OF_ASC_NODE":"54.7884","CENTER_NAME":"EARTH","OBJECT_TYPE":"PAYLOAD","COUNTRY_CODE":"US","MEAN_MOTION_DOT":"-0.00018746","INCLINATION":"53.2186"},{"FILE":"3492149","PERIAPSIS":"538.474","LAUNCH_DATE":"2022-03-09","SITE":"AFETR","CLASSIFICATION_TYPE":"U","OBJECT_NAME":"STARLINK-3651","MEAN_MOTION_DDOT":"0.0000000000000","DECAY_DATE":null,"APOAPSIS":"540.937","MEAN_MOTION":"15.08853106","MEAN_ELEMENT_THEORY":"SGP4","EPHEMERIS_TYPE":"0","ELEMENT_SET_NO":"999","TIME_SYSTEM":"UTC","REF_FRAME":"TEME","REV_AT_EPOCH":"130","SEMIMAJOR_AXIS":"6917.840","BSTAR":"-0.00095981000000","GP_ID":"205930191","RA_OF_ASC_NODE":"54.8063","RCS_SIZE":"LARGE","COUNTRY_CODE":"US","INCLINATION":"53.2152","MEAN_MOTION_DOT":"-0.00015537","CENTER_NAME":"EARTH","OBJECT_TYPE":"PAYLOAD","TLE_LINE1":"1 51985U 22025AF  22162.91667824 -.00015537  00000-0 -95981-3 0  9993","NORAD_CAT_ID":"51985","MEAN_ANOMALY":"171.1460","TLE_LINE2":"2 51985  53.2152  54.8063 0001780  67.0193 171.1460 15.08853106  1307","ECCENTRICITY":"0.00017800","EPOCH":"2022-06-11T22:00:00.999936","PERIOD":"95.437","ARG_OF_PERICENTER":"67.0193","OBJECT_ID":"2022-025AF"}];
